STARLINK-37007          
1 68302U 26057J   26094.83335647 -.01551963  00000+0 -81628-2 0  9997
2 68302  97.2787 218.4987 0001310  82.9215 331.0605 15.83409039  3465
STARLINK-36300          
1 68303U 26057K   26094.83335647 -.01547833  00000+0 -81164-2 0  9994
2 68303  97.2792 218.4968 0001319  82.9194 326.6174 15.83465104  3518
STARLINK-36849          
1 68304U 26057L   26094.83335647 -.01568706  00000+0 -82501-2 0  9993
2 68304  97.2789 218.5009 0001433  70.5453 347.6523 15.83440855  3416
STARLINK-36277          
1 68305U 26057M   26094.83335647 -.01571653  00000+0 -82884-2 0  9993
2 68305  97.2777 218.5035 0001388  80.6431 346.2631 15.83388770  3579
STARLINK-36307          
1 68306U 26057N   26094.83335647 -.01573823  00000+0 -82668-2 0  9995
2 68306  97.2786 218.5026 0001493  68.6309 353.7605 15.83475638  3515
STARLINK-36264          
1 68307U 26057P   26094.83335647 -.01597118  00000+0 -84791-2 0  9998
2 68307  97.2778 218.5060 0001544  74.9090 356.5664 15.83294125  3571
STARLINK-37138          
1 68308U 26057Q   26094.83335647 -.01596396  00000+0 -84484-2 0  9995
2 68308  97.2770 218.5065 0001605  72.2875   3.2949 15.83358854  3245
STARLINK-37149          
1 68309U 26057R   26094.83335647 -.01604636  00000+0 -84977-2 0  9990
2 68309  97.2764 218.5079 0001595  73.2042   6.6668 15.83360507  3354
STARLINK-37148          
1 68310U 26057S   26094.83335647 -.01611835  00000+0 -85535-2 0  9992
2 68310  97.2759 218.5117 0001683  68.8060  19.7141 15.83329276  3462
STARLINK-37140          
1 68311U 26057T   26094.83335647 -.01610428  00000+0 -85482-2 0  9991
2 68311  97.2765 218.5105 0001562  75.4840   8.7689 15.83323038  3626
STARLINK-36854          
1 68312U 26057U   26094.83335647 -.01621338  00000+0 -86046-2 0  9991
2 68312  97.2758 218.5140 0001736  67.9052  24.8647 15.83345014  3410
STARLINK-36815          
1 68313U 26057V   26094.83335647 -.01641634  00000+0 -87457-2 0  9990
2 68313  97.2760 218.5161 0001648  73.0649  24.1144 15.83304391  3417
STARLINK-37155          
1 68314U 26057W   26094.83335647 -.01653857  00000+0 -88688-2 0  9998
2 68314  97.2750 218.5195 0001764  73.0682  32.9695 15.83187874  3468
STARLINK-37150          
1 68315U 26057X   26094.58334491 -.01653889  00000+0 -84965-2 0  9996
2 68315  97.2745 218.2528 0001533  66.3237  51.0234 15.84091563  3422
STARLINK-37154          
1 68316U 26057Y   26094.58334491 -.01678435  00000+0 -87001-2 0  9995
2 68316  97.2733 218.2579 0001771  57.3169  73.4257 15.83947968  3324
STARLINK-37139          
1 68317U 26057Z   26094.58334491 -.01670505  00000+0 -86313-2 0  9991
2 68317  97.2739 218.2557 0001677  59.1971  67.0544 15.84001166  3176
