[{"OBJECT_NAME":"STARLINK-37007","OBJECT_ID":"2026-057J","EPOCH":"2026-04-04T20:00:01.999008","MEAN_MOTION":15.83409039,"ECCENTRICITY":0.000131,"INCLINATION":97.2787,"RA_OF_ASC_NODE":218.4987,"ARG_OF_PERICENTER":82.9215,"MEAN_ANOMALY":331.0605,"EPHEMERIS_TYPE":0,"CLASSIFICATION_TYPE":"U","NORAD_CAT_ID":68302,"ELEMENT_SET_NO":999,"REV_AT_EPOCH":346,"BSTAR":-0.0081628,"MEAN_MOTION_DOT":-0.01551963,"MEAN_MOTION_DDOT":0},{"OBJECT_NAME":"STARLINK-36300","OBJECT_ID":"2026-057K","EPOCH":"2026-04-04T20:00:01.999008","MEAN_MOTION":15.83465104,"ECCENTRICITY":0.0001319,"INCLINATION":97.2792,"RA_OF_ASC_NODE":218.4968,"ARG_OF_PERICENTER":82.9194,"MEAN_ANOMALY":326.6174,"EPHEMERIS_TYPE":0,"CLASSIFICATION_TYPE":"U","NORAD_CAT_ID":68303,"ELEMENT_SET_NO":999,"REV_AT_EPOCH":351,"BSTAR":-0.0081164,"MEAN_MOTION_DOT":-0.01547833,"MEAN_MOTION_DDOT":0},{"OBJECT_NAME":"STARLINK-36849","OBJECT_ID":"2026-057L","EPOCH":"2026-04-04T20:00:01.999008","MEAN_MOTION":15.83440855,"ECCENTRICITY":0.0001433,"INCLINATION":97.2789,"RA_OF_ASC_NODE":218.5009,"ARG_OF_PERICENTER":70.5453,"MEAN_ANOMALY":347.6523,"EPHEMERIS_TYPE":0,"CLASSIFICATION_TYPE":"U","NORAD_CAT_ID":68304,"ELEMENT_SET_NO":999,"REV_AT_EPOCH":341,"BSTAR":-0.0082501,"MEAN_MOTION_DOT":-0.01568706,"MEAN_MOTION_DDOT":0},{"OBJECT_NAME":"STARLINK-36277","OBJECT_ID":"2026-057M","EPOCH":"2026-04-04T20:00:01.999008","MEAN_MOTION":15.8338877,"ECCENTRICITY":0.0001388,"INCLINATION":97.2777,"RA_OF_ASC_NODE":218.5035,"ARG_OF_PERICENTER":80.6431,"MEAN_ANOMALY":346.2631,"EPHEMERIS_TYPE":0,"CLASSIFICATION_TYPE":"U","NORAD_CAT_ID":68305,"ELEMENT_SET_NO":999,"REV_AT_EPOCH":357,"BSTAR":-0.0082884,"MEAN_MOTION_DOT":-0.01571653,"MEAN_MOTION_DDOT":0},{"OBJECT_NAME":"STARLINK-36307","OBJECT_ID":"2026-057N","EPOCH":"2026-04-04T20:00:01.999008","MEAN_MOTION":15.83475638,"ECCENTRICITY":0.0001493,"INCLINATION":97.2786,"RA_OF_ASC_NODE":218.5026,"ARG_OF_PERICENTER":68.6309,"MEAN_ANOMALY":353.7605,"EPHEMERIS_TYPE":0,"CLASSIFICATION_TYPE":"U","NORAD_CAT_ID":68306,"ELEMENT_SET_NO":999,"REV_AT_EPOCH":351,"BSTAR":-0.0082668,"MEAN_MOTION_DOT":-0.01573823,"MEAN_MOTION_DDOT":0},{"OBJECT_NAME":"STARLINK-36264","OBJECT_ID":"2026-057P","EPOCH":"2026-04-04T20:00:01.999008","MEAN_MOTION":15.83294125,"ECCENTRICITY":0.0001544,"INCLINATION":97.2778,"RA_OF_ASC_NODE":218.506,"ARG_OF_PERICENTER":74.909,"MEAN_ANOMALY":356.5664,"EPHEMERIS_TYPE":0,"CLASSIFICATION_TYPE":"U","NORAD_CAT_ID":68307,"ELEMENT_SET_NO":999,"REV_AT_EPOCH":357,"BSTAR":-0.0084791,"MEAN_MOTION_DOT":-0.01597118,"MEAN_MOTION_DDOT":0},{"OBJECT_NAME":"STARLINK-37138","OBJECT_ID":"2026-057Q","EPOCH":"2026-04-04T20:00:01.999008","MEAN_MOTION":15.83358854,"ECCENTRICITY":0.0001605,"INCLINATION":97.277,"RA_OF_ASC_NODE":218.5065,"ARG_OF_PERICENTER":72.2875,"MEAN_ANOMALY":3.2949,"EPHEMERIS_TYPE":0,"CLASSIFICATION_TYPE":"U","NORAD_CAT_ID":68308,"ELEMENT_SET_NO":999,"REV_AT_EPOCH":324,"BSTAR":-0.0084484,"MEAN_MOTION_DOT":-0.01596396,"MEAN_MOTION_DDOT":0},{"OBJECT_NAME":"STARLINK-37149","OBJECT_ID":"2026-057R","EPOCH":"2026-04-04T20:00:01.999008","MEAN_MOTION":15.83360507,"ECCENTRICITY":0.0001595,"INCLINATION":97.2764,"RA_OF_ASC_NODE":218.5079,"ARG_OF_PERICENTER":73.2042,"MEAN_ANOMALY":6.6668,"EPHEMERIS_TYPE":0,"CLASSIFICATION_TYPE":"U","NORAD_CAT_ID":68309,"ELEMENT_SET_NO":999,"REV_AT_EPOCH":335,"BSTAR":-0.0084977,"MEAN_MOTION_DOT":-0.01604636,"MEAN_MOTION_DDOT":0},{"OBJECT_NAME":"STARLINK-37148","OBJECT_ID":"2026-057S","EPOCH":"2026-04-04T20:00:01.999008","MEAN_MOTION":15.83329276,"ECCENTRICITY":0.0001683,"INCLINATION":97.2759,"RA_OF_ASC_NODE":218.5117,"ARG_OF_PERICENTER":68.806,"MEAN_ANOMALY":19.7141,"EPHEMERIS_TYPE":0,"CLASSIFICATION_TYPE":"U","NORAD_CAT_ID":68310,"ELEMENT_SET_NO":999,"REV_AT_EPOCH":346,"BSTAR":-0.0085535,"MEAN_MOTION_DOT":-0.01611835,"MEAN_MOTION_DDOT":0},{"OBJECT_NAME":"STARLINK-37140","OBJECT_ID":"2026-057T","EPOCH":"2026-04-04T20:00:01.999008","MEAN_MOTION":15.83323038,"ECCENTRICITY":0.0001562,"INCLINATION":97.2765,"RA_OF_ASC_NODE":218.5105,"ARG_OF_PERICENTER":75.484,"MEAN_ANOMALY":8.7689,"EPHEMERIS_TYPE":0,"CLASSIFICATION_TYPE":"U","NORAD_CAT_ID":68311,"ELEMENT_SET_NO":999,"REV_AT_EPOCH":362,"BSTAR":-0.0085482,"MEAN_MOTION_DOT":-0.01610428,"MEAN_MOTION_DDOT":0},{"OBJECT_NAME":"STARLINK-36854","OBJECT_ID":"2026-057U","EPOCH":"2026-04-04T20:00:01.999008","MEAN_MOTION":15.83345014,"ECCENTRICITY":0.0001736,"INCLINATION":97.2758,"RA_OF_ASC_NODE":218.514,"ARG_OF_PERICENTER":67.9052,"MEAN_ANOMALY":24.8647,"EPHEMERIS_TYPE":0,"CLASSIFICATION_TYPE":"U","NORAD_CAT_ID":68312,"ELEMENT_SET_NO":999,"REV_AT_EPOCH":341,"BSTAR":-0.0086046,"MEAN_MOTION_DOT":-0.01621338,"MEAN_MOTION_DDOT":0},{"OBJECT_NAME":"STARLINK-36815","OBJECT_ID":"2026-057V","EPOCH":"2026-04-04T20:00:01.999008","MEAN_MOTION":15.83304391,"ECCENTRICITY":0.0001648,"INCLINATION":97.276,"RA_OF_ASC_NODE":218.5161,"ARG_OF_PERICENTER":73.0649,"MEAN_ANOMALY":24.1144,"EPHEMERIS_TYPE":0,"CLASSIFICATION_TYPE":"U","NORAD_CAT_ID":68313,"ELEMENT_SET_NO":999,"REV_AT_EPOCH":341,"BSTAR":-0.0087457,"MEAN_MOTION_DOT":-0.01641634,"MEAN_MOTION_DDOT":0},{"OBJECT_NAME":"STARLINK-37155","OBJECT_ID":"2026-057W","EPOCH":"2026-04-04T20:00:01.999008","MEAN_MOTION":15.83187874,"ECCENTRICITY":0.0001764,"INCLINATION":97.275,"RA_OF_ASC_NODE":218.5195,"ARG_OF_PERICENTER":73.0682,"MEAN_ANOMALY":32.9695,"EPHEMERIS_TYPE":0,"CLASSIFICATION_TYPE":"U","NORAD_CAT_ID":68314,"ELEMENT_SET_NO":999,"REV_AT_EPOCH":346,"BSTAR":-0.0088688,"MEAN_MOTION_DOT":-0.01653857,"MEAN_MOTION_DDOT":0},{"OBJECT_NAME":"STARLINK-37150","OBJECT_ID":"2026-057X","EPOCH":"2026-04-04T14:00:01.000224","MEAN_MOTION":15.84091563,"ECCENTRICITY":0.00015337,"INCLINATION":97.2745,"RA_OF_ASC_NODE":218.2528,"ARG_OF_PERICENTER":66.3237,"MEAN_ANOMALY":51.0234,"EPHEMERIS_TYPE":0,"CLASSIFICATION_TYPE":"U","NORAD_CAT_ID":68315,"ELEMENT_SET_NO":999,"REV_AT_EPOCH":342,"BSTAR":-0.0084964732,"MEAN_MOTION_DOT":-0.01653889,"MEAN_MOTION_DDOT":0},{"OBJECT_NAME":"STARLINK-37154","OBJECT_ID":"2026-057Y","EPOCH":"2026-04-04T14:00:01.000224","MEAN_MOTION":15.83947968,"ECCENTRICITY":0.00017716,"INCLINATION":97.2733,"RA_OF_ASC_NODE":218.2579,"ARG_OF_PERICENTER":57.3169,"MEAN_ANOMALY":73.4257,"EPHEMERIS_TYPE":0,"CLASSIFICATION_TYPE":"U","NORAD_CAT_ID":68316,"ELEMENT_SET_NO":999,"REV_AT_EPOCH":332,"BSTAR":-0.0087000763,"MEAN_MOTION_DOT":-0.01678435,"MEAN_MOTION_DDOT":0},{"OBJECT_NAME":"STARLINK-37139","OBJECT_ID":"2026-057Z","EPOCH":"2026-04-04T14:00:01.000224","MEAN_MOTION":15.84001166,"ECCENTRICITY":0.00016777,"INCLINATION":97.2739,"RA_OF_ASC_NODE":218.2557,"ARG_OF_PERICENTER":59.1971,"MEAN_ANOMALY":67.0544,"EPHEMERIS_TYPE":0,"CLASSIFICATION_TYPE":"U","NORAD_CAT_ID":68317,"ELEMENT_SET_NO":999,"REV_AT_EPOCH":317,"BSTAR":-0.0086312568,"MEAN_MOTION_DOT":-0.01670505,"MEAN_MOTION_DDOT":0}]
